GLOBALSTAR M057 [-]     
1 25943U 99058A   23322.30833528 -.00000064  00000+0  26213-3 0  9995
2 25943  51.9966 185.3053 0001397 270.5555  89.5134 12.24779126 96247
GLOBALSTAR M059 [-]     
1 25944U 99058B   23322.44110465 -.00000033  00000+0  65409-3 0  9995
2 25944  52.0032 327.4230 0000277 314.4200 194.1493 11.99955054504805
GLOBALSTAR M056 [-]     
1 25945U 99058C   23322.41211847 -.00000043  00000+0  52043-3 0  9990
2 25945  51.9986 344.2791 0001105 117.9826 350.9783 12.04772059 93101
GLOBALSTAR M031 [-]     
1 25946U 99058D   23322.05940514 -.00000174  00000+0 -85272-3 0  9997
2 25946  51.9968 272.0922 0002092  76.0144   5.4309 12.15998175 94333
GLOBALSTAR M039 [-]     
1 25961U 99062A   23322.72150718 -.00000061  00000+0  23998-3 0  9993
2 25961  51.9843 224.4385 0003020 132.6017 227.5104 12.62274749107449
GLOBALSTAR M034 [-]     
1 25962U 99062B   23322.56089887 -.00000068  00000+0  20574-3 0  9998
2 25962  51.9879  70.2412 0014093  36.2942 336.3409 11.79417263 70358
GLOBALSTAR M029 [-]     
1 25963U 99062C   23322.62660719 -.00000069  00000+0  20810-3 0  9999
2 25963  51.9794 215.4496 0003636  65.9467 296.9271 11.99870529 99968
GLOBALSTAR M061 [-]     
1 25964U 99062D   23322.56880870 -.00000042  00000+0  63283-3 0  9997
2 25964  51.9795 246.6196 0006049 329.8029 200.8157 11.76754277 53299
